     2.01           GLONASS NAV DATA                        RINEX VERSION / TYPE
CCRINEXG V1.4 UX    CDDIS               10-JAN-21 18:33     PGM / RUN BY / DATE 
IGS BROADCAST EPHEMERIS FILE                                COMMENT             
teqc  2020Oct7      UNAVCO Archive Ops  20210110  3:12:     COMMENT             
  2021     1     9   -0.139698386192D-08                    CORR TO SYSTEM TIME 
    18                                                      LEAP SECONDS        
                                                            END OF HEADER       
 7 21  1  9 18 15  0.0-0.421134755015D-04 0.000000000000D+00 0.669000000000D+05
   -0.151625126953D+05 0.104332351685D+01 0.279396772385D-08 0.000000000000D+00
    0.140210976562D+05-0.177004909515D+01 0.000000000000D+00 0.500000000000D+01
    0.150359116211D+05 0.270378780365D+01-0.931322574616D-09 0.000000000000D+00
 8 21  1  9 18 15  0.0-0.567520037293D-04-0.000000000000D+00 0.648000000000D+05
   -0.113064990234D+05 0.104103088379D+00 0.279396772385D-08 0.000000000000D+00
    0.228690805664D+05 0.157431602478D+00 0.000000000000D+00 0.600000000000D+01
   -0.630493164062D+03 0.356711292267D+01 0.931322574616D-09 0.000000000000D+00
 9 21  1  9 18 15  0.0 0.176960602403D-04 0.272848410532D-11 0.648000000000D+05
   -0.169798212891D+05-0.101894569397D+01-0.279396772385D-08 0.000000000000D+00
   -0.145686982422D+05-0.134346008301D+01-0.465661287308D-08-0.200000000000D+01
   -0.122977167969D+05 0.298879909515D+01-0.186264514923D-08 0.000000000000D+00
10 21  1  9 18 15  0.0-0.653816387057D-04-0.000000000000D+00 0.648000000000D+05
   -0.123758769531D+05-0.173063945770D+01-0.186264514923D-08 0.000000000000D+00
    0.616670410156D+03-0.251315116882D+01-0.372529029846D-08-0.700000000000D+01
   -0.222945361328D+05 0.898622512817D+00 0.931322574616D-09 0.000000000000D+00
11 21  1  9 18 15  0.0 0.472366809845D-05-0.909494701773D-12 0.648000000000D+05
   -0.293769531250D+03-0.143866252899D+01 0.931322574616D-09 0.000000000000D+00
    0.161526987305D+05-0.229169082642D+01-0.000000000000D+00 0.000000000000D+00
   -0.197290649414D+05-0.185445976257D+01 0.279396772385D-08 0.000000000000D+00
12 21  1  9 18 15  0.0 0.195295549929D-03 0.363797880709D-11 0.648000000000D+05
    0.116660712891D+05-0.247808456421D+00 0.186264514923D-08 0.000000000000D+00
    0.221248486328D+05-0.669549942017D+00 0.186264514923D-08-0.100000000000D+01
   -0.505848144531D+04-0.348106575012D+01 0.279396772385D-08 0.000000000000D+00
13 21  1  9 18 15  0.0-0.490983948111D-04-0.000000000000D+00 0.648000000000D+05
    0.168867714844D+05 0.103095531464D+01 0.279396772385D-08 0.000000000000D+00
    0.148745830078D+05 0.129019546509D+01 0.372529029846D-08-0.200000000000D+01
    0.119985249023D+05-0.304503631592D+01 0.931322574616D-09 0.000000000000D+00
14 21  1  9 18 15  0.0 0.596530735493D-04 0.000000000000D+00 0.648000000000D+05
    0.120177631836D+05 0.171392154694D+01 0.931322574616D-09 0.000000000000D+00
   -0.141110058594D+04 0.255021572113D+01 0.372529029846D-08-0.700000000000D+01
    0.224634877930D+05-0.757675170898D+00-0.931322574616D-09 0.000000000000D+00
15 21  1  9 18 15  0.0 0.105971470475D-03-0.000000000000D+00 0.648000000000D+05
    0.379964355469D+03 0.138856220245D+01-0.000000000000D+00 0.000000000000D+00
   -0.164373090820D+05 0.227997207642D+01 0.931322574616D-09 0.000000000000D+00
    0.195168266602D+05 0.189546489716D+01-0.279396772385D-08 0.000000000000D+00
16 21  1  9 18 15  0.0-0.100247561932D-04-0.909494701773D-12 0.648000000000D+05
   -0.125088720703D+05 0.228545188904D+00-0.279396772385D-08 0.000000000000D+00
   -0.217437807617D+05 0.546769142151D+00-0.186264514923D-08-0.100000000000D+01
    0.419648583984D+04 0.350632190704D+01-0.372529029846D-08 0.000000000000D+00
17 21  1  9 18 15  0.0 0.389805063605D-03 0.272848410532D-11 0.648000000000D+05
    0.244338544922D+05 0.837223052978D+00-0.000000000000D+00 0.000000000000D+00
   -0.403256835938D+04-0.258997917175D+00 0.186264514923D-08 0.400000000000D+01
   -0.618243310547D+04 0.346533966065D+01 0.186264514923D-08 0.000000000000D+00
18 21  1  9 18 15  0.0 0.625895336270D-04 0.000000000000D+00 0.648000000000D+05
    0.129245864258D+05 0.271363258362D+01-0.186264514923D-08 0.000000000000D+00
   -0.949214550781D+04-0.244000434875D+00-0.931322574616D-09-0.300000000000D+01
   -0.197969746094D+05 0.189113235474D+01 0.186264514923D-08 0.000000000000D+00
19 21  1  9 18 15  0.0-0.127201899886D-03-0.909494701773D-12 0.648000000000D+05
   -0.438046240234D+04 0.315516376495D+01-0.279396772385D-08 0.000000000000D+00
   -0.101379140625D+05-0.244522094727D-01-0.372529029846D-08 0.300000000000D+01
   -0.229852060547D+05-0.590727806091D+00 0.931322574616D-09 0.000000000000D+00
20 21  1  9 18 15  0.0-0.430763699114D-03-0.000000000000D+00 0.661500000000D+05
   -0.221663798828D+05 0.161127281189D+01-0.186264514923D-08 0.000000000000D+00
   -0.478180371094D+04 0.191038131714D+00-0.465661287308D-08 0.200000000000D+01
   -0.117081899414D+05-0.312064647675D+01-0.931322574616D-09 0.000000000000D+00
21 21  1  9 18 15  0.0-0.179203227162D-03-0.272848410532D-11 0.657000000000D+05
   -0.240114179688D+05-0.994729995727D+00 0.000000000000D+00 0.000000000000D+00
    0.443335546875D+04 0.267971992493D+00-0.186264514923D-08 0.400000000000D+01
    0.734105126953D+04-0.342117023468D+01-0.186264514923D-08 0.000000000000D+00
22 21  1  9 18 15  0.0-0.916067510843D-04-0.909494701773D-12 0.648000000000D+05
   -0.119708291016D+05-0.278881835938D+01 0.186264514923D-08 0.000000000000D+00
    0.960480468750D+04 0.234422683716D+00 0.931322574616D-09-0.300000000000D+01
    0.203978237305D+05-0.173778724670D+01-0.931322574616D-09 0.000000000000D+00
23 21  1  9 18 15  0.0 0.358362682164D-03 0.181898940355D-11 0.648000000000D+05
    0.123644189453D+05-0.282019424439D+01 0.279396772385D-08 0.000000000000D+00
    0.869786376953D+04-0.137329101562D-02 0.372529029846D-08 0.300000000000D+01
    0.205448574219D+05 0.169778060913D+01 0.000000000000D+00 0.000000000000D+00
24 21  1  9 18 15  0.0 0.271713361144D-04 0.181898940355D-11 0.648000000000D+05
    0.225837402344D+05-0.150998973846D+01 0.186264514923D-08 0.000000000000D+00
    0.446477929688D+04-0.112862586975D+00 0.372529029846D-08 0.200000000000D+01
    0.110257680664D+05 0.314384365082D+01 0.931322574616D-09 0.000000000000D+00
 1 21  1  9 18 45  0.0 0.732401385903D-04 0.000000000000D+00 0.666000000000D+05
   -0.329350927734D+04-0.255945205688D+00 0.186264514923D-08 0.000000000000D+00
    0.236777944336D+05 0.119650459290D+01-0.000000000000D+00 0.100000000000D+01
   -0.888895312500D+04 0.328421211243D+01 0.186264514923D-08 0.000000000000D+00
 2 21  1  9 18 45  0.0 0.462177209556D-03 0.909494701773D-12 0.666000000000D+05
    0.806144335938D+04-0.100221920013D+01 0.000000000000D+00 0.000000000000D+00
    0.894715478516D+04 0.291693401337D+01-0.000000000000D+00-0.400000000000D+01
   -0.224593994141D+05 0.795248985291D+00 0.279396772385D-08 0.000000000000D+00
 3 21  1  9 18 45  0.0 0.288486480713D-04 0.000000000000D+00 0.666000000000D+05
    0.132259453125D+05-0.969759941101D+00-0.186264514923D-08 0.000000000000D+00
   -0.954503906250D+04 0.250868701935D+01-0.000000000000D+00 0.500000000000D+01
   -0.195553857422D+05-0.188184165955D+01 0.186264514923D-08 0.000000000000D+00
 4 21  1  9 18 45  0.0 0.693099573255D-04 0.181898940355D-11 0.666000000000D+05
    0.107409721680D+05-0.424290657043D+00-0.279396772385D-08 0.000000000000D+00
   -0.224234736328D+05 0.675585746765D+00 0.000000000000D+00 0.600000000000D+01
   -0.565823681641D+04-0.347046852112D+01-0.000000000000D+00 0.000000000000D+00
 5 21  1  9 18 45  0.0 0.644382089376D-04 0.909494701773D-12 0.666000000000D+05
    0.238466308594D+04 0.377477645874D+00-0.186264514923D-08 0.000000000000D+00
   -0.226675883789D+05-0.152773761749D+01 0.000000000000D+00 0.100000000000D+01
    0.114311484375D+05-0.311173820496D+01-0.279396772385D-08 0.000000000000D+00
 6 21  1  9 18 45  0.0 0.190692022443D-03 0.000000000000D+00 0.667500000000D+05
   -0.893743359375D+04 0.940679550171D+00 0.000000000000D+00 0.000000000000D+00
   -0.773055029297D+04-0.294999217987D+01 0.000000000000D+00-0.400000000000D+01
    0.225878198242D+05-0.639459609985D+00-0.279396772385D-08 0.000000000000D+00
 7 21  1  9 18 45  0.0-0.421125441790D-04 0.000000000000D+00 0.675000000000D+05
   -0.133211123047D+05 0.962651252747D+00 0.186264514923D-08 0.000000000000D+00
    0.102030815430D+05-0.244730472565D+01 0.000000000000D+00 0.500000000000D+01
    0.192614096680D+05 0.196086788178D+01-0.186264514923D-08 0.000000000000D+00
 8 21  1  9 18 45  0.0-0.567520037293D-04 0.000000000000D+00 0.666000000000D+05
   -0.108083383789D+05 0.409767150879D+00 0.279396772385D-08 0.000000000000D+00
    0.224087182617D+05-0.679551124573D+00 0.000000000000D+00 0.600000000000D+01
    0.573184179688D+04 0.345635414123D+01 0.000000000000D+00 0.000000000000D+00
 9 21  1  9 18 45  0.0 0.177007168531D-04 0.272848410532D-11 0.672000000000D+05
   -0.185421000977D+05-0.675388336182D+00-0.372529029846D-08 0.000000000000D+00
   -0.163077568359D+05-0.594255447388D+00-0.372529029846D-08-0.200000000000D+01
   -0.651309521484D+04 0.339689159393D+01-0.279396772385D-08 0.000000000000D+00
10 21  1  9 18 45  0.0-0.653825700283D-04-0.000000000000D+00 0.666000000000D+05
   -0.156393100586D+05-0.185378456116D+01-0.279396772385D-08 0.000000000000D+00
   -0.345867187500D+04-0.198665809631D+01-0.372529029846D-08-0.700000000000D+01
   -0.198356572266D+05 0.181593132019D+01 0.000000000000D+00 0.000000000000D+00
11 21  1  9 18 45  0.0 0.472273677588D-05-0.909494701773D-12 0.666000000000D+05
   -0.339444775391D+04-0.199003505707D+01-0.000000000000D+00 0.000000000000D+00
    0.119652602539D+05-0.231324768066D+01-0.186264514923D-08 0.000000000000D+00
   -0.222605639648D+05-0.940046310425D+00 0.279396772385D-08 0.000000000000D+00
